{
  "type": "FeatureCollection",
  "features": [
    {
      "type": "Feature",
      "properties": {
        "norad_id": 35045,
        "name": "COSMOS 2251 DEB",
        "group": "cosmos-2251-debris",
        "lat": -3.8542411719439653,
        "lon": 31.40255973559336,
        "alt_km": 876.975827762978,
        "timestamp": "2025-12-24T03:53:30.043156+00:00",
        "meta_object_name": "COSMOS 2251 DEB",
        "meta_object_id": "1993-036AHJ",
        "meta_epoch": "2025-12-22T19:20:11.323968",
        "meta_mean_motion": 14.00407667,
        "meta_eccentricity": 0.01839618,
        "meta_inclination": 73.7191,
        "meta_ra_of_asc_node": 34.9254,
        "meta_arg_of_pericenter": 275.5727,
        "meta_mean_anomaly": 82.445,
        "meta_ephemeris_type": 0,
        "meta_classification_type": "U",
        "meta_norad_cat_id": 35045,
        "meta_element_set_no": 999,
        "meta_rev_at_epoch": 84784,
        "meta_bstar": 0.00060913672,
        "meta_mean_motion_dot": 1.018e-05,
        "meta_mean_motion_ddot": 0,
        "tle_line1": "1 35045U 93036AHJ 25356.80568662  .00001018  00000+0  60914-3 0  9992",
        "tle_line2": "2 35045  73.7191  34.9254 0183961 275.5727  82.4450 14.00407667847846"
      },
      "geometry": {
        "type": "Point",
        "coordinates": [
          31.40255973559336,
          -3.8542411719439653
        ]
      }
    },
    {
      "type": "Feature",
      "properties": {
        "norad_id": 35060,
        "name": "COSMOS 2251 DEB",
        "group": "cosmos-2251-debris",
        "lat": 25.278732596141676,
        "lon": 35.404861396437724,
        "alt_km": 763.9190051609476,
        "timestamp": "2025-12-24T03:53:30.043166+00:00",
        "meta_object_name": "COSMOS 2251 DEB",
        "meta_object_id": "1993-036AHP",
        "meta_epoch": "2025-12-17T09:37:48.798336",
        "meta_mean_motion": 14.41611034,
        "meta_eccentricity": 0.00186104,
        "meta_inclination": 74.0362,
        "meta_ra_of_asc_node": 235.6937,
        "meta_arg_of_pericenter": 321.6138,
        "meta_mean_anomaly": 38.3692,
        "meta_ephemeris_type": 0,
        "meta_classification_type": "U",
        "meta_norad_cat_id": 35060,
        "meta_element_set_no": 999,
        "meta_rev_at_epoch": 87309,
        "meta_bstar": 0.00026105938,
        "meta_mean_motion_dot": 8.25e-06,
        "meta_mean_motion_ddot": 0,
        "tle_line1": "1 35060U 93036AHP 25351.40125924  .00000825  00000+0  26106-3 0  9990",
        "tle_line2": "2 35060  74.0362 235.6937 0018610 321.6138  38.3692 14.41611034873096"
      },
      "geometry": {
        "type": "Point",
        "coordinates": [
          35.404861396437724,
          25.278732596141676
        ]
      }
    },
    {
      "type": "Feature",
      "properties": {
        "norad_id": 35061,
        "name": "COSMOS 2251 DEB",
        "group": "cosmos-2251-debris",
        "lat": 34.9564236772315,
        "lon": -64.79987526264998,
        "alt_km": 637.2478754907861,
        "timestamp": "2025-12-24T03:53:30.043177+00:00",
        "meta_object_name": "COSMOS 2251 DEB",
        "meta_object_id": "1993-036AHQ",
        "meta_epoch": "2025-12-23T13:00:21.862080",
        "meta_mean_motion": 14.67913325,
        "meta_eccentricity": 0.0039637,
        "meta_inclination": 74.0464,
        "meta_ra_of_asc_node": 284.8618,
        "meta_arg_of_pericenter": 32.7091,
        "meta_mean_anomaly": 327.652,
        "meta_ephemeris_type": 0,
        "meta_classification_type": "U",
        "meta_norad_cat_id": 35061,
        "meta_element_set_no": 999,
        "meta_rev_at_epoch": 88733,
        "meta_bstar": 0.00077438,
        "meta_mean_motion_dot": 4.453e-05,
        "meta_mean_motion_ddot": 0,
        "tle_line1": "1 35061U 93036AHQ 25357.54191970  .00004453  00000+0  77438-3 0  9991",
        "tle_line2": "2 35061  74.0464 284.8618 0039637  32.7091 327.6520 14.67913325887334"
      },
      "geometry": {
        "type": "Point",
        "coordinates": [
          -64.79987526264998,
          34.9564236772315
        ]
      }
    },
    {
      "type": "Feature",
      "properties": {
        "norad_id": 35062,
        "name": "COSMOS 2251 DEB",
        "group": "cosmos-2251-debris",
        "lat": 45.574101325366094,
        "lon": 89.69723211842741,
        "alt_km": 725.9226921236577,
        "timestamp": "2025-12-24T03:53:30.043187+00:00",
        "meta_object_name": "COSMOS 2251 DEB",
        "meta_object_id": "1993-036AHR",
        "meta_epoch": "2025-12-20T22:03:28.302048",
        "meta_mean_motion": 14.22993492,
        "meta_eccentricity": 0.0126453,
        "meta_inclination": 74.0793,
        "meta_ra_of_asc_node": 78.5797,
        "meta_arg_of_pericenter": 75.845,
        "meta_mean_anomaly": 285.6708,
        "meta_ephemeris_type": 0,
        "meta_classification_type": "U",
        "meta_norad_cat_id": 35062,
        "meta_element_set_no": 999,
        "meta_rev_at_epoch": 85615,
        "meta_bstar": 0.0011493,
        "meta_mean_motion_dot": 2.786e-05,
        "meta_mean_motion_ddot": 0,
        "tle_line1": "1 35062U 93036AHR 25354.91907757  .00002786  00000+0  11493-2 0  9993",
        "tle_line2": "2 35062  74.0793  78.5797 0126453  75.8450 285.6708 14.22993492856157"
      },
      "geometry": {
        "type": "Point",
        "coordinates": [
          89.69723211842741,
          45.574101325366094
        ]
      }
    },
    {
      "type": "Feature",
      "properties": {
        "norad_id": 35065,
        "name": "COSMOS 2251 DEB",
        "group": "cosmos-2251-debris",
        "lat": -46.600468828297196,
        "lon": 155.37437352716285,
        "alt_km": 732.2001500938177,
        "timestamp": "2025-12-24T03:53:30.043197+00:00",
        "meta_object_name": "COSMOS 2251 DEB",
        "meta_object_id": "1993-036AHU",
        "meta_epoch": "2025-12-19T06:12:25.656192",
        "meta_mean_motion": 14.4574331,
        "meta_eccentricity": 0.0020018,
        "meta_inclination": 74.0185,
        "meta_ra_of_asc_node": 182.1668,
        "meta_arg_of_pericenter": 306.5523,
        "meta_mean_anomaly": 53.3791,
        "meta_ephemeris_type": 0,
        "meta_classification_type": "U",
        "meta_norad_cat_id": 35065,
        "meta_element_set_no": 999,
        "meta_rev_at_epoch": 68445,
        "meta_bstar": 0.00028971,
        "meta_mean_motion_dot": 1.002e-05,
        "meta_mean_motion_ddot": 0,
        "tle_line1": "1 35065U 93036AHU 25353.25863028  .00001002  00000+0  28971-3 0  9994",
        "tle_line2": "2 35065  74.0185 182.1668 0020018 306.5523  53.3791 14.45743310684450"
      },
      "geometry": {
        "type": "Point",
        "coordinates": [
          155.37437352716285,
          -46.600468828297196
        ]
      }
    },
    {
      "type": "Feature",
      "properties": {
        "norad_id": 35071,
        "name": "COSMOS 2251 DEB",
        "group": "cosmos-2251-debris",
        "lat": 24.610512190766787,
        "lon": 157.53205461247705,
        "alt_km": 509.24188416092784,
        "timestamp": "2025-12-24T03:53:30.043207+00:00",
        "meta_object_name": "COSMOS 2251 DEB",
        "meta_object_id": "1993-036AJA",
        "meta_epoch": "2025-12-23T03:49:38.502624",
        "meta_mean_motion": 15.03640344,
        "meta_eccentricity": 0.00685241,
        "meta_inclination": 73.9316,
        "meta_ra_of_asc_node": 152.0069,
        "meta_arg_of_pericenter": 45.3397,
        "meta_mean_anomaly": 315.3347,
        "meta_ephemeris_type": 0,
        "meta_classification_type": "U",
        "meta_norad_cat_id": 35071,
        "meta_element_set_no": 999,
        "meta_rev_at_epoch": 67693,
        "meta_bstar": 0.00067222607,
        "meta_mean_motion_dot": 9.658e-05,
        "meta_mean_motion_ddot": 0,
        "tle_line1": "1 35071U 93036AJA 25357.15947341  .00009658  00000+0  67223-3 0  9993",
        "tle_line2": "2 35071  73.9316 152.0069 0068524  45.3397 315.3347 15.03640344676933"
      },
      "geometry": {
        "type": "Point",
        "coordinates": [
          157.53205461247705,
          24.610512190766787
        ]
      }
    },
    {
      "type": "Feature",
      "properties": {
        "norad_id": 35073,
        "name": "COSMOS 2251 DEB",
        "group": "cosmos-2251-debris",
        "lat": 27.874676355890646,
        "lon": -43.99793754104721,
        "alt_km": 553.6237927652592,
        "timestamp": "2025-12-24T03:53:30.043217+00:00",
        "meta_object_name": "COSMOS 2251 DEB",
        "meta_object_id": "1993-036AJC",
        "meta_epoch": "2025-12-23T13:22:12.377280",
        "meta_mean_motion": 15.01382354,
        "meta_eccentricity": 0.0011251,
        "meta_inclination": 74.0027,
        "meta_ra_of_asc_node": 308.5087,
        "meta_arg_of_pericenter": 50.3654,
        "meta_mean_anomaly": 309.8525,
        "meta_ephemeris_type": 0,
        "meta_classification_type": "U",
        "meta_norad_cat_id": 35073,
        "meta_element_set_no": 999,
        "meta_rev_at_epoch": 67641,
        "meta_bstar": 0.0032565,
        "meta_mean_motion_dot": 0.00042271,
        "meta_mean_motion_ddot": 0,
        "tle_line1": "1 35073U 93036AJC 25357.55708770  .00042271  00000+0  32565-2 0  9998",
        "tle_line2": "2 35073  74.0027 308.5087 0011251  50.3654 309.8525 15.01382354676412"
      },
      "geometry": {
        "type": "Point",
        "coordinates": [
          -43.99793754104721,
          27.874676355890646
        ]
      }
    }
  ]
}